IRIDIUM 166             
1 43570U 18061B   25252.26743708  .00000184  00000+0  58811-4 0  9997
2 43570  86.4044 174.1429 0002416  81.7452 278.4018 14.34217943373130
IRIDIUM 158             
1 43571U 18061C   25252.23572354  .00000289  00000+0  96084-4 0  9992
2 43571  86.4044 174.1660 0002163  88.4761 271.6683 14.34217595373095
IRIDIUM 165             
1 43572U 18061D   25252.26109446  .00000262  00000+0  86624-4 0  9994
2 43572  86.4046 174.1963 0002278  81.0648 279.0806 14.34218543373121
IRIDIUM 155             
1 43573U 18061E   25252.22303845  .00000279  00000+0  92558-4 0  9991
2 43573  86.4042 174.0955 0002378  87.7746 272.3722 14.34218259373083
IRIDIUM 154             
1 43574U 18061F   25252.27377848  .00000021  00000+0  52284-6 0  9990
2 43574  86.4049 174.1938 0002120  82.5327 277.6110 14.34220152373147
IRIDIUM 163             
1 43575U 18061G   25252.25475155  .00000074  00000+0  19280-4 0  9994
2 43575  86.4042 174.1260 0002077  86.8840 273.2593 14.34217545373113
IRIDIUM 156             
1 43576U 18061H   25252.22938204  .00000182  00000+0  57812-4 0  9994
2 43576  86.4044 174.1435 0002485  87.4581 272.6899 14.34217621373108
IRIDIUM 164             
1 43577U 18061J   25252.28012195  .00000174  00000+0  55226-4 0  9991
2 43577  86.4043 174.1583 0002343  79.6064 280.5396 14.34218177373156
